{"fetched_at":"2026-07-11T06:35:05.049Z","source":"https://celestrak.org/NORAD/elements/gp.php?GROUP=kuiper&FORMAT=JSON","constellation":"kuiper","records":[{"OBJECT_NAME":"KUIPER-00549","OBJECT_ID":"2026-140AA","EPOCH":"2026-07-10T19:02:19.834368","CLASSIFICATION_TYPE":"U","MEAN_MOTION":15.37287706,"ECCENTRICITY":0.0007957,"INCLINATION":51.8776,"RA_OF_ASC_NODE":284.6776,"ARG_OF_PERICENTER":0.6549,"MEAN_ANOMALY":359.4447,"EPHEMERIS_TYPE":0,"NORAD_CAT_ID":69616,"ELEMENT_SET_NO":999,"REV_AT_EPOCH":486,"BSTAR":0.00077307,"MEAN_MOTION_DOT":0.00028424,"MEAN_MOTION_DDOT":0},{"OBJECT_NAME":"KUIPER-00550","OBJECT_ID":"2026-140AB","EPOCH":"2026-07-09T20:24:01.390176","CLASSIFICATION_TYPE":"U","MEAN_MOTION":15.33047749,"ECCENTRICITY":0.00072742,"INCLINATION":51.879,"RA_OF_ASC_NODE":289.5986,"ARG_OF_PERICENTER":38.0407,"MEAN_ANOMALY":322.1091,"EPHEMERIS_TYPE":0,"NORAD_CAT_ID":69617,"ELEMENT_SET_NO":999,"REV_AT_EPOCH":471,"BSTAR":-0.0023441832,"MEAN_MOTION_DOT":-0.00075643,"MEAN_MOTION_DDOT":0},{"OBJECT_NAME":"KUIPER-00551","OBJECT_ID":"2026-140AC","EPOCH":"2026-07-10T18:25:16.016736","CLASSIFICATION_TYPE":"U","MEAN_MOTION":15.38381561,"ECCENTRICITY":0.0012348,"INCLINATION":51.8758,"RA_OF_ASC_NODE":284.5105,"ARG_OF_PERICENTER":254.2975,"MEAN_ANOMALY":105.665,"EPHEMERIS_TYPE":0,"NORAD_CAT_ID":69618,"ELEMENT_SET_NO":999,"REV_AT_EPOCH":486,"BSTAR":0.00083278,"MEAN_MOTION_DOT":0.0003183,"MEAN_MOTION_DDOT":0},{"OBJECT_NAME":"KUIPER-00554","OBJECT_ID":"2026-140AD","EPOCH":"2026-07-10T06:04:17.637024","CLASSIFICATION_TYPE":"U","MEAN_MOTION":15.37895633,"ECCENTRICITY":0.0010891,"INCLINATION":51.8775,"RA_OF_ASC_NODE":287.0639,"ARG_OF_PERICENTER":274.9137,"MEAN_ANOMALY":85.0606,"EPHEMERIS_TYPE":0,"NORAD_CAT_ID":69619,"ELEMENT_SET_NO":999,"REV_AT_EPOCH":478,"BSTAR":0.00059105486,"MEAN_MOTION_DOT":0.00022076,"MEAN_MOTION_DDOT":0},{"OBJECT_NAME":"KUIPER-00555","OBJECT_ID":"2026-140AE","EPOCH":"2026-07-10T18:28:54.569856","CLASSIFICATION_TYPE":"U","MEAN_MOTION":15.37809087,"ECCENTRICITY":0.0011295,"INCLINATION":51.8822,"RA_OF_ASC_NODE":284.5241,"ARG_OF_PERICENTER":253.2646,"MEAN_ANOMALY":106.7102,"EPHEMERIS_TYPE":0,"NORAD_CAT_ID":69620,"ELEMENT_SET_NO":999,"REV_AT_EPOCH":486,"BSTAR":-0.0015269,"MEAN_MOTION_DOT":-0.00057717,"MEAN_MOTION_DDOT":0},{"OBJECT_NAME":"KUIPER-00556","OBJECT_ID":"2026-140AF","EPOCH":"2026-07-10T06:00:22.801824","CLASSIFICATION_TYPE":"U","MEAN_MOTION":15.38260697,"ECCENTRICITY":0.00116501,"INCLINATION":51.8812,"RA_OF_ASC_NODE":287.0516,"ARG_OF_PERICENTER":251.0389,"MEAN_ANOMALY":108.9336,"EPHEMERIS_TYPE":0,"NORAD_CAT_ID":69621,"ELEMENT_SET_NO":999,"REV_AT_EPOCH":478,"BSTAR":0.00054617321,"MEAN_MOTION_DOT":0.00020618,"MEAN_MOTION_DDOT":0},{"OBJECT_NAME":"KUIPER-00557","OBJECT_ID":"2026-140AG","EPOCH":"2026-07-10T18:39:35.449632","CLASSIFICATION_TYPE":"U","MEAN_MOTION":15.37516845,"ECCENTRICITY":0.000981,"INCLINATION":51.8794,"RA_OF_ASC_NODE":284.5803,"ARG_OF_PERICENTER":280.2133,"MEAN_ANOMALY":79.7748,"EPHEMERIS_TYPE":0,"NORAD_CAT_ID":69622,"ELEMENT_SET_NO":999,"REV_AT_EPOCH":486,"BSTAR":0.00043621,"MEAN_MOTION_DOT":0.00015968,"MEAN_MOTION_DDOT":0},{"OBJECT_NAME":"KUIPER-00560","OBJECT_ID":"2026-140AH","EPOCH":"2026-07-10T13:49:30.004608","CLASSIFICATION_TYPE":"U","MEAN_MOTION":15.38803489,"ECCENTRICITY":0.0008505,"INCLINATION":51.8781,"RA_OF_ASC_NODE":285.4808,"ARG_OF_PERICENTER":293.7135,"MEAN_ANOMALY":66.296,"EPHEMERIS_TYPE":0,"NORAD_CAT_ID":69623,"ELEMENT_SET_NO":999,"REV_AT_EPOCH":483,"BSTAR":0.0007538,"MEAN_MOTION_DOT":0.00029128,"MEAN_MOTION_DDOT":0},{"OBJECT_NAME":"KUIPER-00561","OBJECT_ID":"2026-140AJ","EPOCH":"2026-07-10T06:05:27.559680","CLASSIFICATION_TYPE":"U","MEAN_MOTION":15.38655455,"ECCENTRICITY":0.00081103,"INCLINATION":51.8821,"RA_OF_ASC_NODE":287.0794,"ARG_OF_PERICENTER":293.218,"MEAN_ANOMALY":66.7953,"EPHEMERIS_TYPE":0,"NORAD_CAT_ID":69624,"ELEMENT_SET_NO":999,"REV_AT_EPOCH":478,"BSTAR":0.00056479354,"MEAN_MOTION_DOT":0.00021594,"MEAN_MOTION_DDOT":0},{"OBJECT_NAME":"KUIPER-00564","OBJECT_ID":"2026-140AK","EPOCH":"2026-07-10T08:00:03.000384","CLASSIFICATION_TYPE":"U","MEAN_MOTION":15.37260467,"ECCENTRICITY":0.00092617,"INCLINATION":51.8816,"RA_OF_ASC_NODE":286.6867,"ARG_OF_PERICENTER":280.2463,"MEAN_ANOMALY":161.3962,"EPHEMERIS_TYPE":0,"NORAD_CAT_ID":69625,"ELEMENT_SET_NO":999,"REV_AT_EPOCH":404,"BSTAR":-0.000040894155,"MEAN_MOTION_DOT":-0.00001914,"MEAN_MOTION_DDOT":0},{"OBJECT_NAME":"KUIPER-00567","OBJECT_ID":"2026-140AL","EPOCH":"2026-07-10T18:25:40.628640","CLASSIFICATION_TYPE":"U","MEAN_MOTION":15.3799344,"ECCENTRICITY":0.0014214,"INCLINATION":51.8786,"RA_OF_ASC_NODE":284.516,"ARG_OF_PERICENTER":269.5283,"MEAN_ANOMALY":90.4076,"EPHEMERIS_TYPE":0,"NORAD_CAT_ID":69626,"ELEMENT_SET_NO":999,"REV_AT_EPOCH":486,"BSTAR":0.0054503,"MEAN_MOTION_DOT":0.00213007,"MEAN_MOTION_DDOT":0},{"OBJECT_NAME":"KUIPER-00573","OBJECT_ID":"2026-140AM","EPOCH":"2026-07-10T18:44:45.224736","CLASSIFICATION_TYPE":"U","MEAN_MOTION":15.37401065,"ECCENTRICITY":0.0009339,"INCLINATION":51.878,"RA_OF_ASC_NODE":284.5973,"ARG_OF_PERICENTER":267.6169,"MEAN_ANOMALY":92.3748,"EPHEMERIS_TYPE":0,"NORAD_CAT_ID":69627,"ELEMENT_SET_NO":999,"REV_AT_EPOCH":486,"BSTAR":0.00048619,"MEAN_MOTION_DOT":0.00017777,"MEAN_MOTION_DDOT":0},{"OBJECT_NAME":"KUIPER-00258","OBJECT_ID":"2026-151A","EPOCH":"2026-07-10T20:00:01.999008","CLASSIFICATION_TYPE":"U","MEAN_MOTION":15.35403479,"ECCENTRICITY":0.0011933,"INCLINATION":51.867,"RA_OF_ASC_NODE":201.5874,"ARG_OF_PERICENTER":154.4512,"MEAN_ANOMALY":163.2099,"EPHEMERIS_TYPE":0,"NORAD_CAT_ID":69763,"ELEMENT_SET_NO":999,"REV_AT_EPOCH":170,"BSTAR":0.00072477,"MEAN_MOTION_DOT":0.00025061,"MEAN_MOTION_DDOT":0},{"OBJECT_NAME":"KUIPER-00526","OBJECT_ID":"2026-151B","EPOCH":"2026-07-10T20:00:01.999008","CLASSIFICATION_TYPE":"U","MEAN_MOTION":15.37245604,"ECCENTRICITY":0.000618,"INCLINATION":51.8765,"RA_OF_ASC_NODE":201.4793,"ARG_OF_PERICENTER":126.9419,"MEAN_ANOMALY":243.4368,"EPHEMERIS_TYPE":0,"NORAD_CAT_ID":69764,"ELEMENT_SET_NO":999,"REV_AT_EPOCH":147,"BSTAR":0.0008698,"MEAN_MOTION_DOT":0.0003199,"MEAN_MOTION_DDOT":0},{"OBJECT_NAME":"KUIPER-00558","OBJECT_ID":"2026-151C","EPOCH":"2026-07-10T20:00:01.999008","CLASSIFICATION_TYPE":"U","MEAN_MOTION":15.36737191,"ECCENTRICITY":0.000778,"INCLINATION":51.8755,"RA_OF_ASC_NODE":201.5092,"ARG_OF_PERICENTER":137.6806,"MEAN_ANOMALY":218.3227,"EPHEMERIS_TYPE":0,"NORAD_CAT_ID":69765,"ELEMENT_SET_NO":999,"REV_AT_EPOCH":194,"BSTAR":0.0008649,"MEAN_MOTION_DOT":0.00031292,"MEAN_MOTION_DDOT":0},{"OBJECT_NAME":"KUIPER-00569","OBJECT_ID":"2026-151D","EPOCH":"2026-07-10T20:00:01.999008","CLASSIFICATION_TYPE":"U","MEAN_MOTION":15.37396604,"ECCENTRICITY":0.0005216,"INCLINATION":51.8788,"RA_OF_ASC_NODE":201.4648,"ARG_OF_PERICENTER":125.2356,"MEAN_ANOMALY":251.0561,"EPHEMERIS_TYPE":0,"NORAD_CAT_ID":69766,"ELEMENT_SET_NO":999,"REV_AT_EPOCH":130,"BSTAR":0.0008604,"MEAN_MOTION_DOT":0.0003179,"MEAN_MOTION_DDOT":0}]}
