KUIPER-00549            
1 69616U 26140AA  26191.79328512  .00028424  00000+0  77307-3 0  9993
2 69616  51.8776 284.6776 0007957   0.6549 359.4447 15.37287706  4866
KUIPER-00550            
1 69617U 26140AB  26190.85001609 -.00075643  00000+0 -23442-2 0  9992
2 69617  51.8790 289.5986 0007274  38.0407 322.1091 15.33047749  4713
KUIPER-00551            
1 69618U 26140AC  26191.76754649  .00031830  00000+0  83278-3 0  9995
2 69618  51.8758 284.5105 0012348 254.2975 105.6650 15.38381561  4865
KUIPER-00554            
1 69619U 26140AD  26191.25298191  .00022076  00000+0  59105-3 0  9999
2 69619  51.8775 287.0639 0010891 274.9137  85.0606 15.37895633  4787
KUIPER-00555            
1 69620U 26140AE  26191.77007604 -.00057717  00000+0 -15269-2 0  9999
2 69620  51.8822 284.5241 0011295 253.2646 106.7102 15.37809087  4866
KUIPER-00556            
1 69621U 26140AF  26191.25026391  .00020618  00000+0  54617-3 0  9996
2 69621  51.8812 287.0516 0011650 251.0389 108.9336 15.38260697  4787
KUIPER-00557            
1 69622U 26140AG  26191.77749363  .00015968  00000+0  43621-3 0  9990
2 69622  51.8794 284.5803 0009810 280.2133  79.7748 15.37516845  4863
KUIPER-00560            
1 69623U 26140AH  26191.57604172  .00029128  00000+0  75380-3 0  9997
2 69623  51.8781 285.4808 0008505 293.7135  66.2960 15.38803489  4834
KUIPER-00561            
1 69624U 26140AJ  26191.25379120  .00021594  00000+0  56479-3 0  9992
2 69624  51.8821 287.0794 0008110 293.2180  66.7953 15.38655455  4788
KUIPER-00564            
1 69625U 26140AK  26191.33336806 -.00001914  00000+0 -40894-4 0  9997
2 69625  51.8816 286.6867 0009261 280.2463 161.3962 15.37260467  4042
KUIPER-00567            
1 69626U 26140AL  26191.76783135  .00213007  00000+0  54503-2 0  9992
2 69626  51.8786 284.5160 0014214 269.5283  90.4076 15.37993440  4868
KUIPER-00573            
1 69627U 26140AM  26191.78107899  .00017777  00000+0  48619-3 0  9990
2 69627  51.8780 284.5973 0009339 267.6169  92.3748 15.37401065  4863
KUIPER-00258            
1 69763U 26151A   26191.83335647  .00025061  00000+0  72477-3 0  9997
2 69763  51.8670 201.5874 0011933 154.4512 163.2099 15.35403479  1705
KUIPER-00526            
1 69764U 26151B   26191.83335647  .00031990  00000+0  86980-3 0  9990
2 69764  51.8765 201.4793 0006180 126.9419 243.4368 15.37245604  1478
KUIPER-00558            
1 69765U 26151C   26191.83335647  .00031292  00000+0  86490-3 0  9992
2 69765  51.8755 201.5092 0007780 137.6806 218.3227 15.36737191  1940
KUIPER-00569            
1 69766U 26151D   26191.83335647  .00031790  00000+0  86040-3 0  9997
2 69766  51.8788 201.4648 0005216 125.2356 251.0561 15.37396604  1304
